[{"OBJECT_NAME":"KUZGTU 1 (RS47S)","OBJECT_ID":"2023-091AV","EPOCH":"2026-03-09T22:22:51.965760","MEAN_MOTION":15.27481352,"ECCENTRICITY":0.0012896,"INCLINATION":97.5178,"RA_OF_ASC_NODE":132.5224,"ARG_OF_PERICENTER":89.3666,"MEAN_ANOMALY":270.9051,"EPHEMERIS_TYPE":0,"CLASSIFICATION_TYPE":"U","NORAD_CAT_ID":57217,"ELEMENT_SET_NO":999,"REV_AT_EPOCH":14921,"BSTAR":0.00057711473,"MEAN_MOTION_DOT":0.00015496,"MEAN_MOTION_DDOT":0},{"OBJECT_NAME":"STARLINK-34665","OBJECT_ID":"2025-167M","EPOCH":"2026-03-09T06:45:12.102912","MEAN_MOTION":15.30202424,"ECCENTRICITY":0.00010625,"INCLINATION":53.1613,"RA_OF_ASC_NODE":28.8152,"ARG_OF_PERICENTER":70.3211,"MEAN_ANOMALY":289.7905,"EPHEMERIS_TYPE":0,"CLASSIFICATION_TYPE":"U","NORAD_CAT_ID":65089,"ELEMENT_SET_NO":999,"REV_AT_EPOCH":3341,"BSTAR":0.0004399694,"MEAN_MOTION_DOT":0.00012695,"MEAN_MOTION_DDOT":0}]
